{
  "norad_id": 59890,
  "name": "STARLINK-31951",
  "history": [
    {
      "epoch": "2026-04-13T05:49:00.918336Z",
      "apogee_km": 483.9975681952419,
      "perigee_km": 482.1433954853501,
      "latitude_deg": -8.697703390376717e-06,
      "longitude_deg": 1.3683027093705806,
      "height_km": 482.9668552654095,
      "semi_major_axis_km": 6861.207481840296,
      "eccentricity": 0.00013512,
      "inclination_deg": 43.0037,
      "raan_deg": 290.0581,
      "arg_perigee_deg": 262.605,
      "mean_anomaly_deg": 97.4648,
      "mean_motion_rev_day": 15.27572858
    },
    {
      "epoch": "2026-04-14T11:37:58.875744Z",
      "apogee_km": 483.9387193542443,
      "perigee_km": 482.1589277516141,
      "latitude_deg": 6.607722287125376e-05,
      "longitude_deg": -94.11400926629976,
      "height_km": 482.92831754101593,
      "semi_major_axis_km": 6861.185823552929,
      "eccentricity": 0.0001297,
      "inclination_deg": 43.0036,
      "raan_deg": 283.0417,
      "arg_perigee_deg": 263.3855,
      "mean_anomaly_deg": 96.685,
      "mean_motion_rev_day": 15.27580091
    },
    {
      "epoch": "2026-04-15T20:35:16.181952Z",
      "apogee_km": 484.1350363823867,
      "perigee_km": 481.98885335243176,
      "latitude_deg": -1.415891538132951e-06,
      "longitude_deg": 122.45720621618786,
      "height_km": 482.92413656453306,
      "semi_major_axis_km": 6861.1989448674085,
      "eccentricity": 0.0001564,
      "inclination_deg": 43.0044,
      "raan_deg": 275.2885,
      "arg_perigee_deg": 265.4632,
      "mean_anomaly_deg": 94.6041,
      "mean_motion_rev_day": 15.27575709
    },
    {
      "epoch": "2026-04-16T18:33:27.878976Z",
      "apogee_km": 484.01498810723024,
      "perigee_km": 482.11443523309754,
      "latitude_deg": 1.1781623790549244e-06,
      "longitude_deg": 146.8371007460892,
      "height_km": 482.81813662901106,
      "semi_major_axis_km": 6861.201711670164,
      "eccentricity": 0.0001385,
      "inclination_deg": 43.0034,
      "raan_deg": 270.1194,
      "arg_perigee_deg": 271.4259,
      "mean_anomaly_deg": 88.6434,
      "mean_motion_rev_day": 15.27574785
    },
    {
      "epoch": "2026-04-17T19:39:57.545856Z",
      "apogee_km": 484.05061884941824,
      "perigee_km": 482.0636170328635,
      "latitude_deg": -6.054367988795072e-05,
      "longitude_deg": 123.27316550051273,
      "height_km": 482.8757992201264,
      "semi_major_axis_km": 6861.194117941141,
      "eccentricity": 0.0001448,
      "inclination_deg": 43.004,
      "raan_deg": 264.2103,
      "arg_perigee_deg": 267.6063,
      "mean_anomaly_deg": 92.4622,
      "mean_motion_rev_day": 15.27577321
    }
  ]
}